{"type": "FeatureCollection", "features": [ {"type": "Feature", "properties": {"norad_id": 41774, "name": "SKYSAT-C3", "group": "resource", "lat": 67.25400768932832, "lon": 2.863898537347714, "alt_km": 425.8776527232867, "timestamp": "2025-12-11T22:43:46.928951+00:00", "meta": {"OBJECT_NAME": "SKYSAT-C3", "OBJECT_ID": "2016-058E", "EPOCH": "2025-12-11T08:26:21.530112", "MEAN_MOTION": 15.44319647, "ECCENTRICITY": 0.00016218, "INCLINATION": 96.9303, "RA_OF_ASC_NODE": 19.1617, "ARG_OF_PERICENTER": 107.3439, "MEAN_ANOMALY": 252.7988, "EPHEMERIS_TYPE": 0, "CLASSIFICATION_TYPE": "U", "NORAD_CAT_ID": 41774, "ELEMENT_SET_NO": 999, "REV_AT_EPOCH": 51704, "BSTAR": 0.00065903387, "MEAN_MOTION_DOT": 0.00030358, "MEAN_MOTION_DDOT": 0}, "tle": {"line1": "1 41774U 16058E   25345.35163808  .00030358  00000+0  65903-3 0  9990", "line2": "2 41774  96.9303  19.1617 0001621 107.3439 252.7988 15.44319647517049"}}, "geometry": {"type": "Point", "coordinates": [2.863898537347714, 67.25400768932832]}}, {"type": "Feature", "properties": {"norad_id": 41785, "name": "ALSAT 1B", "group": "resource", "lat": 46.53905040006806, "lon": -173.93255256672958, "alt_km": 643.7205344714912, "timestamp": "2025-12-11T22:43:46.928961+00:00", "meta": {"OBJECT_NAME": "ALSAT 1B", "OBJECT_ID": "2016-059C", "EPOCH": "2025-12-11T12:20:27.986784", "MEAN_MOTION": 14.72072726, "ECCENTRICITY": 0.00106973, "INCLINATION": 97.7816, "RA_OF_ASC_NODE": 357.3566, "ARG_OF_PERICENTER": 106.6737, "MEAN_ANOMALY": 253.5647, "EPHEMERIS_TYPE": 0, "CLASSIFICATION_TYPE": "U", "NORAD_CAT_ID": 41785, "ELEMENT_SET_NO": 999, "REV_AT_EPOCH": 49296, "BSTAR": 0.00010090774, "MEAN_MOTION_DOT": 5.88e-06, "MEAN_MOTION_DDOT": 0}, "tle": {"line1": "1 41785U 16059C   25345.51421281  .00000588  00000+0  10091-3 0  9993", "line2": "2 41785  97.7816 357.3566 0010697 106.6737 253.5647 14.72072726492963"}}, "geometry": {"type": "Point", "coordinates": [-173.93255256672958, 46.53905040006806]}}, {"type": "Feature", "properties": {"norad_id": 41787, "name": "PATHFINDER 1", "group": "resource", "lat": -44.67292674622957, "lon": 160.95471816317445, "alt_km": 692.9341862214987, "timestamp": "2025-12-11T22:43:46.928971+00:00", "meta": {"OBJECT_NAME": "PATHFINDER 1", "OBJECT_ID": "2016-059E", "EPOCH": "2025-12-11T11:53:22.646400", "MEAN_MOTION": 14.67318093, "ECCENTRICITY": 0.00300529, "INCLINATION": 97.8139, "RA_OF_ASC_NODE": 348.3267, "ARG_OF_PERICENTER": 84.9916, "MEAN_ANOMALY": 275.4719, "EPHEMERIS_TYPE": 0, "CLASSIFICATION_TYPE": "U", "NORAD_CAT_ID": 41787, "ELEMENT_SET_NO": 999, "REV_AT_EPOCH": 49218, "BSTAR": 0.00024545769, "MEAN_MOTION_DOT": 1.348e-05, "MEAN_MOTION_DDOT": 0}, "tle": {"line1": "1 41787U 16059E   25345.49540100  .00001348  00000+0  24546-3 0  9999", "line2": "2 41787  97.8139 348.3267 0030052  84.9916 275.4719 14.67318093492187"}}, "geometry": {"type": "Point", "coordinates": [160.95471816317445, -44.67292674622957]}}, {"type": "Feature", "properties": {"norad_id": 41790, "name": "SCATSAT 1", "group": "resource", "lat": -4.955044576820216, "lon": -138.10430997452605, "alt_km": 613.2408181078727, "timestamp": "2025-12-11T22:43:46.928981+00:00", "meta": {"OBJECT_NAME": "SCATSAT 1", "OBJECT_ID": "2016-059H", "EPOCH": "2025-12-11T15:24:20.808864", "MEAN_MOTION": 14.78930902, "ECCENTRICITY": 0.00562291, "INCLINATION": 98.1464, "RA_OF_ASC_NODE": 42.2983, "ARG_OF_PERICENTER": 131.4501, "MEAN_ANOMALY": 229.1559, "EPHEMERIS_TYPE": 0, "CLASSIFICATION_TYPE": "U", "NORAD_CAT_ID": 41790, "ELEMENT_SET_NO": 999, "REV_AT_EPOCH": 7386, "BSTAR": 0.00036012993, "MEAN_MOTION_DOT": 2.671e-05, "MEAN_MOTION_DDOT": 0}, "tle": {"line1": "1 41790U 16059H   25345.64190751  .00002671  00000+0  36013-3 0  9995", "line2": "2 41790  98.1464  42.2983 0056229 131.4501 229.1559 14.78930902 73862"}}, "geometry": {"type": "Point", "coordinates": [-138.10430997452605, -4.955044576820216]}}, {"type": "Feature", "properties": {"norad_id": 41875, "name": "GOKTURK 1A", "group": "resource", "lat": -44.52773954740075, "lon": -113.58160890076232, "alt_km": 691.3897911543654, "timestamp": "2025-12-11T22:43:46.928991+00:00", "meta": {"OBJECT_NAME": "GOKTURK 1A", "OBJECT_ID": "2016-073A", "EPOCH": "2025-12-11T16:22:07.569120", "MEAN_MOTION": 14.62777842, "ECCENTRICITY": 0.0001224, "INCLINATION": 98.1424, "RA_OF_ASC_NODE": 238.0611, "ARG_OF_PERICENTER": 78.3284, "MEAN_ANOMALY": 281.8055, "EPHEMERIS_TYPE": 0, "CLASSIFICATION_TYPE": "U", "NORAD_CAT_ID": 41875, "ELEMENT_SET_NO": 999, "REV_AT_EPOCH": 48141, "BSTAR": 0.00019084155, "MEAN_MOTION_DOT": 9.26e-06, "MEAN_MOTION_DDOT": 0}, "tle": {"line1": "1 41875U 16073A   25345.68203205  .00000926  00000+0  19084-3 0  9998", "line2": "2 41875  98.1424 238.0611 0001224  78.3284 281.8055 14.62777842481412"}}, "geometry": {"type": "Point", "coordinates": [-113.58160890076232, -44.52773954740075]}}, {"type": "Feature", "properties": {"norad_id": 41877, "name": "RESOURCESAT-2A", "group": "resource", "lat": 57.6631870736937, "lon": -110.07078642951114, "alt_km": 814.9690888004725, "timestamp": "2025-12-11T22:43:46.929001+00:00", "meta": {"OBJECT_NAME": "RESOURCESAT-2A", "OBJECT_ID": "2016-074A", "EPOCH": "2025-12-11T15:24:17.057376", "MEAN_MOTION": 14.21598714, "ECCENTRICITY": 0.00011053, "INCLINATION": 98.7752, "RA_OF_ASC_NODE": 55.5037, "ARG_OF_PERICENTER": 261.6221, "MEAN_ANOMALY": 98.4831, "EPHEMERIS_TYPE": 0, "CLASSIFICATION_TYPE": "U", "NORAD_CAT_ID": 41877, "ELEMENT_SET_NO": 999, "REV_AT_EPOCH": 46765, "BSTAR": 0.00013363976, "MEAN_MOTION_DOT": 2.49e-06, "MEAN_MOTION_DDOT": 0}, "tle": {"line1": "1 41877U 16074A   25345.64186409  .00000249  00000+0  13364-3 0  9996", "line2": "2 41877  98.7752  55.5037 0001105 261.6221  98.4831 14.21598714467652"}}, "geometry": {"type": "Point", "coordinates": [-110.07078642951114, 57.6631870736937]}}, {"type": "Feature", "properties": {"norad_id": 41948, "name": "CARTOSAT-2D", "group": "resource", "lat": -29.223869661591507, "lon": -140.73520429266458, "alt_km": 511.85517562849236, "timestamp": "2025-12-11T22:43:46.929011+00:00", "meta": {"OBJECT_NAME": "CARTOSAT-2D", "OBJECT_ID": "2017-008A", "EPOCH": "2025-12-11T15:29:17.225664", "MEAN_MOTION": 15.192445, "ECCENTRICITY": 0.00045192, "INCLINATION": 97.4382, "RA_OF_ASC_NODE": 43.159, "ARG_OF_PERICENTER": 166.107, "MEAN_ANOMALY": 194.029, "EPHEMERIS_TYPE": 0, "CLASSIFICATION_TYPE": "U", "NORAD_CAT_ID": 41948, "ELEMENT_SET_NO": 999, "REV_AT_EPOCH": 48910, "BSTAR": 0.00052363743, "MEAN_MOTION_DOT": 0.00010977, "MEAN_MOTION_DDOT": 0}, "tle": {"line1": "1 41948U 17008A   25345.64533826  .00010977  00000+0  52364-3 0  9994", "line2": "2 41948  97.4382  43.1590 0004519 166.1070 194.0290 15.19244500489101"}}, "geometry": {"type": "Point", "coordinates": [-140.73520429266458, -29.223869661591507]}}, {"type": "Feature", "properties": {"norad_id": 42063, "name": "SENTINEL-2B", "group": "resource", "lat": 62.2148462239304, "lon": 41.771230538869105, "alt_km": 782.1934566255813, "timestamp": "2025-12-11T22:43:46.929022+00:00", "meta": {"OBJECT_NAME": "SENTINEL-2B", "OBJECT_ID": "2017-013A", "EPOCH": "2025-12-11T15:43:15.124224", "MEAN_MOTION": 14.30816209, "ECCENTRICITY": 0.00011506, "INCLINATION": 98.5711, "RA_OF_ASC_NODE": 58.1157, "ARG_OF_PERICENTER": 93.032, "MEAN_ANOMALY": 267.0995, "EPHEMERIS_TYPE": 0, "CLASSIFICATION_TYPE": "U", "NORAD_CAT_ID": 42063, "ELEMENT_SET_NO": 999, "REV_AT_EPOCH": 45782, "BSTAR": 0.00019844805, "MEAN_MOTION_DOT": 4.77e-06, "MEAN_MOTION_DDOT": 0}, "tle": {"line1": "1 42063U 17013A   25345.65503616  .00000477  00000+0  19845-3 0  9995", "line2": "2 42063  98.5711  58.1157 0001150  93.0320 267.0995 14.30816209457827"}}, "geometry": {"type": "Point", "coordinates": [41.771230538869105, 62.2148462239304]}}, {"type": "Feature", "properties": {"norad_id": 42767, "name": "CARTOSAT-2E", "group": "resource", "lat": 58.54884093630576, "lon": -124.09362129959011, "alt_km": 503.0303564842525, "timestamp": "2025-12-11T22:43:46.929032+00:00", "meta": {"OBJECT_NAME": "CARTOSAT-2E", "OBJECT_ID": "2017-036C", "EPOCH": "2025-12-11T14:17:50.105184", "MEAN_MOTION": 15.19311424, "ECCENTRICITY": 0.00023242, "INCLINATION": 97.4549, "RA_OF_ASC_NODE": 43.1975, "ARG_OF_PERICENTER": 239.905, "MEAN_ANOMALY": 120.1955, "EPHEMERIS_TYPE": 0, "CLASSIFICATION_TYPE": "U", "NORAD_CAT_ID": 42767, "ELEMENT_SET_NO": 999, "REV_AT_EPOCH": 46966, "BSTAR": 0.0006086803, "MEAN_MOTION_DOT": 0.00012797, "MEAN_MOTION_DDOT": 0}, "tle": {"line1": "1 42767U 17036C   25345.59571881  .00012797  00000+0  60868-3 0  9992", "line2": "2 42767  97.4549  43.1975 0002324 239.9050 120.1955 15.19311424469669"}}, "geometry": {"type": "Point", "coordinates": [-124.09362129959011, 58.54884093630576]}}, {"type": "Feature", "properties": {"norad_id": 42920, "name": "FORMOSAT-5", "group": "resource", "lat": 8.002293753427194, "lon": 59.11376836999074, "alt_km": 721.8035973514652, "timestamp": "2025-12-11T22:43:46.929044+00:00", "meta": {"OBJECT_NAME": "FORMOSAT-5", "OBJECT_ID": "2017-049A", "EPOCH": "2025-12-11T14:25:03.289728", "MEAN_MOTION": 14.51004444, "ECCENTRICITY": 0.00099294, "INCLINATION": 98.2454, "RA_OF_ASC_NODE": 59.9424, "ARG_OF_PERICENTER": 299.4141, "MEAN_ANOMALY": 60.6063, "EPHEMERIS_TYPE": 0, "CLASSIFICATION_TYPE": "U", "NORAD_CAT_ID": 42920, "ELEMENT_SET_NO": 999, "REV_AT_EPOCH": 43947, "BSTAR": 0.00011414667, "MEAN_MOTION_DOT": 4.08e-06, "MEAN_MOTION_DDOT": 0}, "tle": {"line1": "1 42920U 17049A   25345.60073252  .00000408  00000+0  11415-3 0  9998", "line2": "2 42920  98.2454  59.9424 0009929 299.4141  60.6063 14.51004444439478"}}, "geometry": {"type": "Point", "coordinates": [59.11376836999074, 8.002293753427194]}}]}